[{"OBJECT_NAME":"XW-3 (CAS-9)","OBJECT_ID":"2021-131B","EPOCH":"2026-03-07T15:06:33.812064","MEAN_MOTION":14.41248594,"ECCENTRICITY":0.00049591,"INCLINATION":98.4964,"RA_OF_ASC_NODE":159.5968,"ARG_OF_PERICENTER":54.9526,"MEAN_ANOMALY":305.2127,"EPHEMERIS_TYPE":0,"CLASSIFICATION_TYPE":"U","NORAD_CAT_ID":50466,"ELEMENT_SET_NO":999,"REV_AT_EPOCH":22048,"BSTAR":0.00031057626,"MEAN_MOTION_DOT":9.59e-6,"MEAN_MOTION_DDOT":0},{"OBJECT_NAME":"GREENCUBE (IO-117)","OBJECT_ID":"2022-080E","EPOCH":"2026-03-07T02:04:59.774016","MEAN_MOTION":6.42583094,"ECCENTRICITY":0.00090138,"INCLINATION":70.1628,"RA_OF_ASC_NODE":333.7587,"ARG_OF_PERICENTER":311.8097,"MEAN_ANOMALY":48.1792,"EPHEMERIS_TYPE":0,"CLASSIFICATION_TYPE":"U","NORAD_CAT_ID":53109,"ELEMENT_SET_NO":999,"REV_AT_EPOCH":8550,"BSTAR":0,"MEAN_MOTION_DOT":-3.0e-8,"MEAN_MOTION_DDOT":0},{"OBJECT_NAME":"UMKA 1 (RS40S)","OBJECT_ID":"2023-091G","EPOCH":"2026-03-07T14:19:11.099136","MEAN_MOTION":15.19558303,"ECCENTRICITY":0.00146336,"INCLINATION":97.5179,"RA_OF_ASC_NODE":125.7112,"ARG_OF_PERICENTER":112.5702,"MEAN_ANOMALY":247.7083,"EPHEMERIS_TYPE":0,"CLASSIFICATION_TYPE":"U","NORAD_CAT_ID":57172,"ELEMENT_SET_NO":999,"REV_AT_EPOCH":14857,"BSTAR":0.00045159929,"MEAN_MOTION_DOT":9.565e-5,"MEAN_MOTION_DDOT":0},{"OBJECT_NAME":"CUBESX-HSE 3 (RS42S)","OBJECT_ID":"2023-091N","EPOCH":"2026-03-07T14:23:50.650656","MEAN_MOTION":15.28523819,"ECCENTRICITY":0.0012739,"INCLINATION":97.5207,"RA_OF_ASC_NODE":131.049,"ARG_OF_PERICENTER":93.732,"MEAN_ANOMALY":266.5376,"EPHEMERIS_TYPE":0,"CLASSIFICATION_TYPE":"U","NORAD_CAT_ID":57178,"ELEMENT_SET_NO":999,"REV_AT_EPOCH":14889,"BSTAR":0.00073514879,"MEAN_MOTION_DOT":0.0002041,"MEAN_MOTION_DDOT":0},{"OBJECT_NAME":"MONITOR-3 (RS58S)","OBJECT_ID":"2023-091Q","EPOCH":"2026-03-07T14:44:06.493920","MEAN_MOTION":15.25672677,"ECCENTRICITY":0.00137254,"INCLINATION":97.5202,"RA_OF_ASC_NODE":129.4164,"ARG_OF_PERICENTER":98.4673,"MEAN_ANOMALY":261.8121,"EPHEMERIS_TYPE":0,"CLASSIFICATION_TYPE":"U","NORAD_CAT_ID":57180,"ELEMENT_SET_NO":999,"REV_AT_EPOCH":14879,"BSTAR":0.00064004094,"MEAN_MOTION_DOT":0.00016285,"MEAN_MOTION_DDOT":0},{"OBJECT_NAME":"MONITOR-4 (RS57S)","OBJECT_ID":"2023-091S","EPOCH":"2026-03-07T14:22:51.497760","MEAN_MOTION":15.25757571,"ECCENTRICITY":0.00137132,"INCLINATION":97.5198,"RA_OF_ASC_NODE":129.3666,"ARG_OF_PERICENTER":99.0262,"MEAN_ANOMALY":261.2529,"EPHEMERIS_TYPE":0,"CLASSIFICATION_TYPE":"U","NORAD_CAT_ID":57182,"ELEMENT_SET_NO":999,"REV_AT_EPOCH":14879,"BSTAR":0.00067418807,"MEAN_MOTION_DOT":0.00017204,"MEAN_MOTION_DDOT":0},{"OBJECT_NAME":"MONITOR-2 (RS39S)","OBJECT_ID":"2023-091U","EPOCH":"2026-03-07T15:06:34.386624","MEAN_MOTION":15.17883817,"ECCENTRICITY":0.00130113,"INCLINATION":97.5203,"RA_OF_ASC_NODE":125.5776,"ARG_OF_PERICENTER":105.0746,"MEAN_ANOMALY":255.1929,"EPHEMERIS_TYPE":0,"CLASSIFICATION_TYPE":"U","NORAD_CAT_ID":57184,"ELEMENT_SET_NO":999,"REV_AT_EPOCH":14854,"BSTAR":0.00041369614,"MEAN_MOTION_DOT":8.336e-5,"MEAN_MOTION_DDOT":0},{"OBJECT_NAME":"SVYATOBOR 1 (RS60S)","OBJECT_ID":"2023-091X","EPOCH":"2026-03-07T14:24:11.771136","MEAN_MOTION":15.24755808,"ECCENTRICITY":0.00112137,"INCLINATION":97.5209,"RA_OF_ASC_NODE":129.9336,"ARG_OF_PERICENTER":91.5282,"MEAN_ANOMALY":268.724,"EPHEMERIS_TYPE":0,"CLASSIFICATION_TYPE":"U","NORAD_CAT_ID":57187,"ELEMENT_SET_NO":999,"REV_AT_EPOCH":14882,"BSTAR":0.00060290856,"MEAN_MOTION_DOT":0.00014904,"MEAN_MOTION_DDOT":0},{"OBJECT_NAME":"VIZARD-METEO (RS38S)","OBJECT_ID":"2023-091Z","EPOCH":"2026-03-07T14:36:44.218368","MEAN_MOTION":15.32655191,"ECCENTRICITY":0.00088503,"INCLINATION":97.5195,"RA_OF_ASC_NODE":134.2634,"ARG_OF_PERICENTER":78.9879,"MEAN_ANOMALY":281.2358,"EPHEMERIS_TYPE":0,"CLASSIFICATION_TYPE":"U","NORAD_CAT_ID":57189,"ELEMENT_SET_NO":999,"REV_AT_EPOCH":14911,"BSTAR":0.00080663695,"MEAN_MOTION_DOT":0.00025442,"MEAN_MOTION_DDOT":0},{"OBJECT_NAME":"NANOZOND 1 (RS49S)","OBJECT_ID":"2023-091AA","EPOCH":"2026-03-04T18:50:11.914368","MEAN_MOTION":15.72447637,"ECCENTRICITY":4.56e-5,"INCLINATION":97.509,"RA_OF_ASC_NODE":143.6448,"ARG_OF_PERICENTER":27.7219,"MEAN_ANOMALY":332.4068,"EPHEMERIS_TYPE":0,"CLASSIFICATION_TYPE":"U","NORAD_CAT_ID":57190,"ELEMENT_SET_NO":999,"REV_AT_EPOCH":14950,"BSTAR":0.0017099321,"MEAN_MOTION_DOT":0.00233103,"MEAN_MOTION_DDOT":0},{"OBJECT_NAME":"POLYTECH-UNIVERSE 3 (RS46S)","OBJECT_ID":"2023-091AB","EPOCH":"2026-03-07T14:29:37.290048","MEAN_MOTION":15.18066289,"ECCENTRICITY":0.00173173,"INCLINATION":97.5177,"RA_OF_ASC_NODE":125.0591,"ARG_OF_PERICENTER":120.7167,"MEAN_ANOMALY":239.5776,"EPHEMERIS_TYPE":0,"CLASSIFICATION_TYPE":"U","NORAD_CAT_ID":57191,"ELEMENT_SET_NO":999,"REV_AT_EPOCH":14853,"BSTAR":0.00040307599,"MEAN_MOTION_DOT":8.177e-5,"MEAN_MOTION_DDOT":0},{"OBJECT_NAME":"UTMN 2 (RS27S)","OBJECT_ID":"2023-091AP","EPOCH":"2026-03-07T14:37:30.603072","MEAN_MOTION":15.29407416,"ECCENTRICITY":0.00098027,"INCLINATION":97.5198,"RA_OF_ASC_NODE":132.5672,"ARG_OF_PERICENTER":83.0244,"MEAN_ANOMALY":277.2111,"EPHEMERIS_TYPE":0,"CLASSIFICATION_TYPE":"U","NORAD_CAT_ID":57203,"ELEMENT_SET_NO":999,"REV_AT_EPOCH":14900,"BSTAR":0.00072113174,"MEAN_MOTION_DOT":0.00020549,"MEAN_MOTION_DDOT":0},{"OBJECT_NAME":"KUZGTU 1 (RS47S)","OBJECT_ID":"2023-091AV","EPOCH":"2026-03-07T15:21:07.113888","MEAN_MOTION":15.27400246,"ECCENTRICITY":0.00129743,"INCLINATION":97.5183,"RA_OF_ASC_NODE":130.2112,"ARG_OF_PERICENTER":96.5355,"MEAN_ANOMALY":263.7361,"EPHEMERIS_TYPE":0,"CLASSIFICATION_TYPE":"U","NORAD_CAT_ID":57217,"ELEMENT_SET_NO":999,"REV_AT_EPOCH":14886,"BSTAR":0.00069587298,"MEAN_MOTION_DOT":0.00018662,"MEAN_MOTION_DDOT":0},{"OBJECT_NAME":"SONATE-2","OBJECT_ID":"2024-043Q","EPOCH":"2026-03-07T09:38:23.567424","MEAN_MOTION":15.51138763,"ECCENTRICITY":0.00078277,"INCLINATION":97.5394,"RA_OF_ASC_NODE":211.2207,"ARG_OF_PERICENTER":213.1297,"MEAN_ANOMALY":146.9466,"EPHEMERIS_TYPE":0,"CLASSIFICATION_TYPE":"U","NORAD_CAT_ID":59112,"ELEMENT_SET_NO":999,"REV_AT_EPOCH":11207,"BSTAR":0.00091881141,"MEAN_MOTION_DOT":0.00053855,"MEAN_MOTION_DDOT":0},{"OBJECT_NAME":"MESAT1","OBJECT_ID":"2024-125G","EPOCH":"2026-03-07T13:47:22.530048","MEAN_MOTION":15.53360877,"ECCENTRICITY":0.00113125,"INCLINATION":97.2457,"RA_OF_ASC_NODE":282.3973,"ARG_OF_PERICENTER":230.725,"MEAN_ANOMALY":129.3001,"EPHEMERIS_TYPE":0,"CLASSIFICATION_TYPE":"U","NORAD_CAT_ID":60209,"ELEMENT_SET_NO":999,"REV_AT_EPOCH":9374,"BSTAR":0.00090153603,"MEAN_MOTION_DOT":0.00057322,"MEAN_MOTION_DDOT":0},{"OBJECT_NAME":"OOV-CUBE (TUBSAT-30)","OBJECT_ID":"2024-128F","EPOCH":"2026-03-07T15:11:02.918688","MEAN_MOTION":15.02232851,"ECCENTRICITY":0.00546426,"INCLINATION":61.9946,"RA_OF_ASC_NODE":219.5521,"ARG_OF_PERICENTER":111.9163,"MEAN_ANOMALY":248.775,"EPHEMERIS_TYPE":0,"CLASSIFICATION_TYPE":"U","NORAD_CAT_ID":60240,"ELEMENT_SET_NO":999,"REV_AT_EPOCH":9085,"BSTAR":0.00039167775,"MEAN_MOTION_DOT":5.147e-5,"MEAN_MOTION_DDOT":0}]
