XW-3 (CAS-9)            
1 50466U 21131B   26066.62955801  .00000959  00000+0  31058-3 0  9997
2 50466  98.4964 159.5968 0004959  54.9526 305.2127 14.41248594220482
GREENCUBE (IO-117)      
1 53109U 22080E   26066.08680294 -.00000003  00000+0  00000+0 0  9999
2 53109  70.1628 333.7587 0009013 311.8097  48.1792  6.42583094 85502
UMKA 1 (RS40S)          
1 57172U 23091G   26066.59665624  .00009565  00000+0  45160-3 0  9993
2 57172  97.5179 125.7112 0014633 112.5702 247.7083 15.19558303148572
CUBESX-HSE 3 (RS42S)    
1 57178U 23091N   26066.59989179  .00020410  00000+0  73515-3 0  9990
2 57178  97.5207 131.0490 0012739  93.7320 266.5376 15.28523819148893
MONITOR-3 (RS58S)       
1 57180U 23091Q   26066.61396405  .00016285  00000+0  64004-3 0  9998
2 57180  97.5202 129.4164 0013725  98.4673 261.8121 15.25672677148798
MONITOR-4 (RS57S)       
1 57182U 23091S   26066.59920715  .00017204  00000+0  67419-3 0  9999
2 57182  97.5198 129.3666 0013713  99.0262 261.2529 15.25757571148791
MONITOR-2 (RS39S)       
1 57184U 23091U   26066.62956466  .00008336  00000+0  41370-3 0  9991
2 57184  97.5203 125.5776 0013011 105.0746 255.1929 15.17883817148549
SVYATOBOR 1 (RS60S)     
1 57187U 23091X   26066.60013624  .00014904  00000+0  60291-3 0  9993
2 57187  97.5209 129.9336 0011213  91.5282 268.7240 15.24755808148827
VIZARD-METEO (RS38S)    
1 57189U 23091Z   26066.60884512  .00025442  00000+0  80664-3 0  9992
2 57189  97.5195 134.2634 0008850  78.9879 281.2358 15.32655191149113
NANOZOND 1 (RS49S)      
1 57190U 23091AA  26063.78486012  .00233103  00000+0  17099-2 0  9999
2 57190  97.5090 143.6448 0000456  27.7219 332.4068 15.72447637149508
POLYTECH-UNIVERSE 3 (R*)
1 57191U 23091AB  26066.60390382  .00008177  00000+0  40308-3 0  9999
2 57191  97.5177 125.0591 0017317 120.7167 239.5776 15.18066289148533
UTMN 2 (RS27S)          
1 57203U 23091AP  26066.60938198  .00020549  00000+0  72113-3 0  9992
2 57203  97.5198 132.5672 0009802  83.0244 277.2111 15.29407416149008
KUZGTU 1 (RS47S)        
1 57217U 23091AV  26066.63966567  .00018662  00000+0  69587-3 0  9995
2 57217  97.5183 130.2112 0012974  96.5355 263.7361 15.27400246148869
SONATE-2                
1 59112U 24043Q   26066.40166166  .00053855  00000+0  91881-3 0  9996
2 59112  97.5394 211.2207 0007827 213.1297 146.9466 15.51138763112078
MESAT1                  
1 60209U 24125G   26066.57456632  .00057322  00000+0  90154-3 0  9999
2 60209  97.2457 282.3973 0011312 230.7250 129.3001 15.53360877 93748
OOV-CUBE (TUBSAT-30)    
1 60240U 24128F   26066.63267267  .00005147  00000+0  39168-3 0  9994
2 60240  61.9946 219.5521 0054642 111.9163 248.7750 15.02232851 90851
